{"type": "FeatureCollection", "features": [ {"type": "Feature", "properties": {"norad_id": 39634, "name": "SENTINEL-1A", "group": "resource", "lat": 31.85028928106785, "lon": -174.44328462663913, "alt_km": 693.516601653133, "timestamp": "2025-12-21T07:34:34.197571+00:00", "meta": {"OBJECT_NAME": "SENTINEL-1A", "OBJECT_ID": "2014-016A", "EPOCH": "2025-12-20T22:40:23.293920", "MEAN_MOTION": 14.59200345, "ECCENTRICITY": 0.0001261, "INCLINATION": 98.1795, "RA_OF_ASC_NODE": 0.0648, "ARG_OF_PERICENTER": 86.3368, "MEAN_ANOMALY": 273.7976, "EPHEMERIS_TYPE": 0, "CLASSIFICATION_TYPE": "U", "NORAD_CAT_ID": 39634, "ELEMENT_SET_NO": 999, "REV_AT_EPOCH": 62402, "BSTAR": 1.0675039e-05, "MEAN_MOTION_DOT": 5e-08, "MEAN_MOTION_DDOT": 0}, "tle": {"line1": "1 39634U 14016A   25354.94471405  .00000005  00000+0  10675-4 0  9997", "line2": "2 39634  98.1795   0.0648 0001261  86.3368 273.7976 14.59200345624026"}}, "geometry": {"type": "Point", "coordinates": [-174.44328462663913, 31.85028928106785]}}, {"type": "Feature", "properties": {"norad_id": 39731, "name": "KAZEOSAT 1", "group": "resource", "lat": -45.471148503403384, "lon": 75.61042063457587, "alt_km": 759.0680813349327, "timestamp": "2025-12-21T07:34:34.197580+00:00", "meta": {"OBJECT_NAME": "KAZEOSAT 1", "OBJECT_ID": "2014-024A", "EPOCH": "2025-12-20T21:47:53.118816", "MEAN_MOTION": 14.42066264, "ECCENTRICITY": 0.00011783, "INCLINATION": 98.3432, "RA_OF_ASC_NODE": 66.6326, "ARG_OF_PERICENTER": 97.4721, "MEAN_ANOMALY": 262.6603, "EPHEMERIS_TYPE": 0, "CLASSIFICATION_TYPE": "U", "NORAD_CAT_ID": 39731, "ELEMENT_SET_NO": 999, "REV_AT_EPOCH": 61286, "BSTAR": 2.4461085e-05, "MEAN_MOTION_DOT": 3.7e-07, "MEAN_MOTION_DDOT": 0}, "tle": {"line1": "1 39731U 14024A   25354.90825369  .00000037  00000+0  24461-4 0  9995", "line2": "2 39731  98.3432  66.6326 0001178  97.4721 262.6603 14.42066264612863"}}, "geometry": {"type": "Point", "coordinates": [75.61042063457587, -45.471148503403384]}}, {"type": "Feature", "properties": {"norad_id": 39766, "name": "ALOS-2", "group": "resource", "lat": -82.01215896222088, "lon": 173.00447071402937, "alt_km": 639.3303519802748, "timestamp": "2025-12-21T07:34:34.197589+00:00", "meta": {"OBJECT_NAME": "ALOS-2", "OBJECT_ID": "2014-029A", "EPOCH": "2025-12-20T22:14:20.585760", "MEAN_MOTION": 14.79471119, "ECCENTRICITY": 0.00014086, "INCLINATION": 97.9232, "RA_OF_ASC_NODE": 89.6565, "ARG_OF_PERICENTER": 97.0747, "MEAN_ANOMALY": 263.0625, "EPHEMERIS_TYPE": 0, "CLASSIFICATION_TYPE": "U", "NORAD_CAT_ID": 39766, "ELEMENT_SET_NO": 999, "REV_AT_EPOCH": 62522, "BSTAR": 0.00019456291, "MEAN_MOTION_DOT": 1.402e-05, "MEAN_MOTION_DDOT": 0}, "tle": {"line1": "1 39766U 14029A   25354.92662715  .00001402  00000+0  19456-3 0  9998", "line2": "2 39766  97.9232  89.6565 0001408  97.0747 263.0625 14.79471119625226"}}, "geometry": {"type": "Point", "coordinates": [173.00447071402937, -82.01215896222088]}}, {"type": "Feature", "properties": {"norad_id": 40010, "name": "KAZEOSAT 2", "group": "resource", "lat": -3.3105550372828136, "lon": -160.37354443598534, "alt_km": 622.3251689608433, "timestamp": "2025-12-21T07:34:34.197598+00:00", "meta": {"OBJECT_NAME": "KAZEOSAT 2", "OBJECT_ID": "2014-033A", "EPOCH": "2025-12-20T21:53:21.807744", "MEAN_MOTION": 14.8517918, "ECCENTRICITY": 0.00083551, "INCLINATION": 97.5497, "RA_OF_ASC_NODE": 198.8043, "ARG_OF_PERICENTER": 178.2049, "MEAN_ANOMALY": 181.9198, "EPHEMERIS_TYPE": 0, "CLASSIFICATION_TYPE": "U", "NORAD_CAT_ID": 40010, "ELEMENT_SET_NO": 999, "REV_AT_EPOCH": 62249, "BSTAR": 5.1436313e-05, "MEAN_MOTION_DOT": 3.91e-06, "MEAN_MOTION_DDOT": 0}, "tle": {"line1": "1 40010U 14033A   25354.91205796  .00000391  00000+0  51436-4 0  9999", "line2": "2 40010  97.5497 198.8043 0008355 178.2049 181.9198 14.85179180622497"}}, "geometry": {"type": "Point", "coordinates": [-160.37354443598534, -3.3105550372828136]}}, {"type": "Feature", "properties": {"norad_id": 40011, "name": "HODOYOSHI-4", "group": "resource", "lat": 23.617264159934546, "lon": 7.0964494485152825, "alt_km": 589.243337482696, "timestamp": "2025-12-21T07:34:34.197607+00:00", "meta": {"OBJECT_NAME": "HODOYOSHI-4", "OBJECT_ID": "2014-033B", "EPOCH": "2025-12-20T22:48:16.287264", "MEAN_MOTION": 14.87509706, "ECCENTRICITY": 0.00238082, "INCLINATION": 97.5405, "RA_OF_ASC_NODE": 183.4288, "ARG_OF_PERICENTER": 172.9824, "MEAN_ANOMALY": 187.1731, "EPHEMERIS_TYPE": 0, "CLASSIFICATION_TYPE": "U", "NORAD_CAT_ID": 40011, "ELEMENT_SET_NO": 999, "REV_AT_EPOCH": 62230, "BSTAR": 0.00020400581, "MEAN_MOTION_DOT": 1.807e-05, "MEAN_MOTION_DDOT": 0}, "tle": {"line1": "1 40011U 14033B   25354.95018851  .00001807  00000+0  20401-3 0  9998", "line2": "2 40011  97.5405 183.4288 0023808 172.9824 187.1731 14.87509706622304"}}, "geometry": {"type": "Point", "coordinates": [7.0964494485152825, 23.617264159934546]}}, {"type": "Feature", "properties": {"norad_id": 40013, "name": "DEIMOS-2", "group": "resource", "lat": 56.37116699495128, "lon": 62.42393779689404, "alt_km": 582.1971582601991, "timestamp": "2025-12-21T07:34:34.197616+00:00", "meta": {"OBJECT_NAME": "DEIMOS-2", "OBJECT_ID": "2014-033D", "EPOCH": "2025-12-20T21:22:38.027424", "MEAN_MOTION": 14.93009459, "ECCENTRICITY": 0.00015077, "INCLINATION": 97.6068, "RA_OF_ASC_NODE": 230.422, "ARG_OF_PERICENTER": 103.9135, "MEAN_ANOMALY": 256.2253, "EPHEMERIS_TYPE": 0, "CLASSIFICATION_TYPE": "U", "NORAD_CAT_ID": 40013, "ELEMENT_SET_NO": 999, "REV_AT_EPOCH": 61111, "BSTAR": 0.00023936689, "MEAN_MOTION_DOT": 2.434e-05, "MEAN_MOTION_DDOT": 0}, "tle": {"line1": "1 40013U 14033D   25354.89071791  .00002434  00000+0  23937-3 0  9999", "line2": "2 40013  97.6068 230.4220 0001507 103.9135 256.2253 14.93009459611113"}}, "geometry": {"type": "Point", "coordinates": [62.42393779689404, 56.37116699495128]}}, {"type": "Feature", "properties": {"norad_id": 40015, "name": "HODOYOSHI-3", "group": "resource", "lat": -0.801030613687074, "lon": 160.88515421184835, "alt_km": 634.6507425812342, "timestamp": "2025-12-21T07:34:34.197625+00:00", "meta": {"OBJECT_NAME": "HODOYOSHI-3", "OBJECT_ID": "2014-033F", "EPOCH": "2025-12-20T21:52:32.664288", "MEAN_MOTION": 14.84831555, "ECCENTRICITY": 0.00322723, "INCLINATION": 97.6204, "RA_OF_ASC_NODE": 160.3914, "ARG_OF_PERICENTER": 220.0926, "MEAN_ANOMALY": 139.7908, "EPHEMERIS_TYPE": 0, "CLASSIFICATION_TYPE": "U", "NORAD_CAT_ID": 40015, "ELEMENT_SET_NO": 999, "REV_AT_EPOCH": 62116, "BSTAR": 0.00013814017, "MEAN_MOTION_DOT": 1.131e-05, "MEAN_MOTION_DDOT": 0}, "tle": {"line1": "1 40015U 14033F   25354.91148917  .00001131  00000+0  13814-3 0  9995", "line2": "2 40015  97.6204 160.3914 0032272 220.0926 139.7908 14.84831555621168"}}, "geometry": {"type": "Point", "coordinates": [160.88515421184835, -0.801030613687074]}}, {"type": "Feature", "properties": {"norad_id": 40053, "name": "SPOT 7", "group": "resource", "lat": 58.68891683276462, "lon": 43.67059087081565, "alt_km": 684.0953229416382, "timestamp": "2025-12-21T07:34:34.197634+00:00", "meta": {"OBJECT_NAME": "SPOT 7", "OBJECT_ID": "2014-034A", "EPOCH": "2025-12-20T23:05:03.185088", "MEAN_MOTION": 14.60742865, "ECCENTRICITY": 0.00015673, "INCLINATION": 98.0901, "RA_OF_ASC_NODE": 56.8482, "ARG_OF_PERICENTER": 85.3484, "MEAN_ANOMALY": 274.7895, "EPHEMERIS_TYPE": 0, "CLASSIFICATION_TYPE": "U", "NORAD_CAT_ID": 40053, "ELEMENT_SET_NO": 999, "REV_AT_EPOCH": 61111, "BSTAR": 6.3510593e-05, "MEAN_MOTION_DOT": 2.64e-06, "MEAN_MOTION_DDOT": 0}, "tle": {"line1": "1 40053U 14034A   25354.96184242  .00000264  00000+0  63511-4 0  9990", "line2": "2 40053  98.0901  56.8482 0001567  85.3484 274.7895 14.60742865611110"}}, "geometry": {"type": "Point", "coordinates": [43.67059087081565, 58.68891683276462]}}, {"type": "Feature", "properties": {"norad_id": 40072, "name": "SKYSAT-B", "group": "resource", "lat": 80.23101673097207, "lon": 178.16227881623357, "alt_km": 594.8087581902764, "timestamp": "2025-12-21T07:34:34.197655+00:00", "meta": {"OBJECT_NAME": "SKYSAT-B", "OBJECT_ID": "2014-037D", "EPOCH": "2025-12-20T19:50:54.393216", "MEAN_MOTION": 14.87352902, "ECCENTRICITY": 0.00066439, "INCLINATION": 98.3623, "RA_OF_ASC_NODE": 298.9605, "ARG_OF_PERICENTER": 127.4898, "MEAN_ANOMALY": 232.6921, "EPHEMERIS_TYPE": 0, "CLASSIFICATION_TYPE": "U", "NORAD_CAT_ID": 40072, "ELEMENT_SET_NO": 999, "REV_AT_EPOCH": 61944, "BSTAR": 0.00012991233, "MEAN_MOTION_DOT": 1.113e-05, "MEAN_MOTION_DDOT": 0}, "tle": {"line1": "1 40072U 14037D   25354.82701844  .00001113  00000+0  12991-3 0  9991", "line2": "2 40072  98.3623 298.9605 0006643 127.4898 232.6921 14.87352902619443"}}, "geometry": {"type": "Point", "coordinates": [178.16227881623357, 80.23101673097207]}}, {"type": "Feature", "properties": {"norad_id": 40115, "name": "WORLDVIEW-3 (WV-3)", "group": "resource", "lat": -78.26129303899697, "lon": 109.26944278071892, "alt_km": 623.0138786998368, "timestamp": "2025-12-21T07:34:34.197665+00:00", "meta": {"OBJECT_NAME": "WORLDVIEW-3 (WV-3)", "OBJECT_ID": "2014-048A", "EPOCH": "2025-12-20T22:14:12.534144", "MEAN_MOTION": 14.84664617, "ECCENTRICITY": 0.00018234, "INCLINATION": 97.877, "RA_OF_ASC_NODE": 67.1057, "ARG_OF_PERICENTER": 135.8247, "MEAN_ANOMALY": 224.3114, "EPHEMERIS_TYPE": 0, "CLASSIFICATION_TYPE": "U", "NORAD_CAT_ID": 40115, "ELEMENT_SET_NO": 999, "REV_AT_EPOCH": 61545, "BSTAR": 9.1978388e-05, "MEAN_MOTION_DOT": 7.25e-06, "MEAN_MOTION_DDOT": 0}, "tle": {"line1": "1 40115U 14048A   25354.92653396  .00000725  00000+0  91978-4 0  9991", "line2": "2 40115  97.8770  67.1057 0001823 135.8247 224.3114 14.84664617615456"}}, "geometry": {"type": "Point", "coordinates": [109.26944278071892, -78.26129303899697]}}]}